NORAD_CAT_ID,OBJECT_NAME,OBJECT_TYPE,EPOCH,MEAN_MOTION,ECCENTRICITY,INCLINATION,RA_OF_ASC_NODE,ARG_OF_PERICENTER,MEAN_ANOMALY,BSTAR,MEAN_MOTION_DOT,MEAN_MOTION_DDOT,TLE_LINE0,TLE_LINE1,TLE_LINE2,SEMIMAJOR_AXIS,PERIOD,APOGEE,PERIGEE,DECAYED
54186.0,STARLINK-5194,PAYLOAD,2023-12-08 12:12:09,15.08838123,0.0001165,53.2171,85.2343,86.6248,273.4877,1.7471e-05,-1e-07,0.0,0 STARLINK-5194,1 54186U 22141AF  23342.50844030 -.00000010  00000-0  17471-4 0  9998,2 54186  53.2171  85.2343 0001165  86.6248 273.4877 15.08838123 61876,6917.886,95.438,540.557,538.945,0.0
54186.0,STARLINK-5194,PAYLOAD,2023-12-09 12:02:56,15.08835075,0.0001176,53.2173,80.7733,88.5439,271.5688,1.4976e-05,-4.9e-07,0.0,0 STARLINK-5194,1 54186U 22141AF  23343.50204395 -.00000049  00000-0  14976-4 0  9992,2 54186  53.2173  80.7733 0001176  88.5439 271.5688 15.08835075 62251,6917.895,95.438,540.574,538.947,0.0
54186.0,STARLINK-5194,PAYLOAD,2023-12-10 11:53:43,15.08836143,0.0001265,53.2181,76.3141,95.0496,265.0641,2.1949e-05,6.1e-07,0.0,0 STARLINK-5194,1 54186U 22141AF  23344.49564554  .00000061  00000-0  21949-4 0  9998,2 54186  53.2181  76.3141 0001265  95.0496 265.0641 15.08836143 62174,6917.892,95.438,540.632,538.882,0.0
54186.0,STARLINK-5194,PAYLOAD,2023-12-11 11:44:30,15.08828402,0.0001243,53.2186,71.8541,86.4236,273.6898,-5.7225e-05,-1.198e-05,0.0,0 STARLINK-5194,1 54186U 22141AF  23345.48924601 -.00001198  00000-0 -57225-4 0  9991,2 54186  53.2186  71.8541 0001243  86.4236 273.6898 15.08828402 62555,6917.916,95.438,540.641,538.921,0.0
54186.0,STARLINK-5194,PAYLOAD,2023-12-11 13:19:53,15.08828897,0.0001276,53.2185,71.5568,96.9676,263.1462,-5.2791e-05,-1.128e-05,0.0,0 STARLINK-5194,1 54186U 22141AF  23345.55548562 -.00001128  00000-0 -52791-4 0  9993,2 54186  53.2185  71.5568 0001276  96.9676 263.1462 15.08828897 62335,6917.914,95.438,540.662,538.897,0.0
54186.0,STARLINK-5194,PAYLOAD,2023-12-12 11:35:17,15.08839886,0.0001068,53.2176,67.3866,109.2014,250.9094,-9.2413e-05,-1.758e-05,0.0,0 STARLINK-5194,1 54186U 22141AF  23346.48284288 -.00001758  00000-0 -92413-4 0  9992,2 54186  53.2176  67.3866 0001068 109.2014 250.9094 15.08839886 62708,6917.881,95.438,540.485,539.007,0.0
54186.0,STARLINK-5194,PAYLOAD,2023-12-12 13:10:40,15.08842451,0.000123,53.2187,67.0883,117.444,242.6677,-8.4289e-05,-1.629e-05,0.0,0 STARLINK-5194,1 54186U 22141AF  23346.54908092 -.00001629  00000-0 -84289-4 0  9994,2 54186  53.2187  67.0883 0001230 117.4440 242.6677 15.08842451 62483,6917.873,95.437,540.589,538.887,0.0
54186.0,STARLINK-5194,PAYLOAD,2023-12-13 13:01:27,15.08832079,0.0001618,53.2186,62.6362,72.5992,287.5177,0.00012367,1.68e-05,0.0,0 STARLINK-5194,1 54186U 22141AF  23347.54268394  .00001680  00000-0  12367-3 0  9991,2 54186  53.2186  62.6362 0001618  72.5992 287.5177 15.08832079 62633,6917.905,95.438,540.889,538.65,0.0
54186.0,STARLINK-5194,PAYLOAD,2023-12-14 11:16:51,15.0884154,0.0001673,53.2183,58.4762,67.5202,292.5967,5.7962e-05,6.35e-06,0.0,0 STARLINK-5194,1 54186U 22141AF  23348.47004436  .00000635  00000-0  57962-4 0  9999,2 54186  53.2183  58.4762 0001673  67.5202 292.5967 15.08841540 62777,6917.876,95.437,540.898,538.583,0.0
54186.0,STARLINK-5194,PAYLOAD,2023-12-15 11:07:39,15.088384,0.0001504,53.2178,54.0127,99.8044,260.3118,-1.0106e-05,-4.49e-06,0.0,0 STARLINK-5194,1 54186U 22141AF  23349.46364759 -.00000449  00000-0 -10106-4 0  9990,2 54186  53.2178  54.0127 0001504  99.8044 260.3118 15.08838400 63158,6917.885,95.438,540.791,538.71,0.0
54186.0,STARLINK-5194,PAYLOAD,2023-12-16 09:23:03,15.08835371,0.000181,53.2188,49.8494,116.8073,243.3104,-2.0384e-05,-6.12e-06,0.0,0 STARLINK-5194,1 54186U 22141AF  23350.39101098 -.00000612  00000-0 -20384-4 0  9990,2 54186  53.2188  49.8494 0001810 116.8073 243.3104 15.08835371 63060,6917.895,95.438,541.012,538.507,0.0
54186.0,STARLINK-5194,PAYLOAD,2023-12-17 10:49:13,15.08840546,0.0001612,53.2191,45.0909,113.2676,246.8486,4.3593e-05,4.06e-06,0.0,0 STARLINK-5194,1 54186U 22141AF  23351.45084807  .00000406  00000-0  43593-4 0  9992,2 54186  53.2191  45.0909 0001612 113.2676 246.8486 15.08840546 63457,6917.879,95.438,540.859,538.629,0.0
54186.0,STARLINK-5194,PAYLOAD,2023-12-18 09:04:37,15.08821019,0.0001605,53.2187,40.9285,108.5691,251.5475,0.00038246,5.801e-05,0.0,0 STARLINK-5194,1 54186U 22141AF  23352.37820873  .00005801  00000-0  38246-3 0  9997,2 54186  53.2187  40.9285 0001605 108.5691 251.5475 15.08821019 63599,6917.938,95.439,540.914,538.693,0.0
54186.0,STARLINK-5194,PAYLOAD,2023-12-19 10:30:47,15.08841987,0.000138,53.2183,36.1718,91.31,268.805,-5.4169e-05,-1.15e-05,0.0,0 STARLINK-5194,1 54186U 22141AF  23353.43805409 -.00001150  00000-0 -54169-4 0  9991,2 54186  53.2183  36.1718 0001380  91.3100 268.8050 15.08841987 63751,6917.874,95.437,540.694,538.785,0.0
54186.0,STARLINK-5194,PAYLOAD,2023-12-20 10:21:35,15.0883295,0.0001602,53.2194,31.7107,78.4615,281.6557,-1.1902e-05,-4.77e-06,0.0,0 STARLINK-5194,1 54186U 22141AF  23354.43166261 -.00000477  00000-0 -11902-4 0  9997,2 54186  53.2194  31.7107 0001602  78.4615 281.6557 15.08832950 63902,6917.902,95.438,540.875,538.659,0.0
54186.0,STARLINK-5194,PAYLOAD,2023-12-20 23:04:40,15.0883714,0.0001413,53.2188,29.3315,86.7146,273.4008,9.3416e-05,1.199e-05,0.0,0 STARLINK-5194,1 54186U 22141AF  23354.96157654  .00001199  00000-0  93416-4 0  9991,2 54186  53.2188  29.3315 0001413  86.7146 273.4008 15.08837140 63984,6917.889,95.438,540.732,538.777,0.0
54186.0,STARLINK-5194,PAYLOAD,2023-12-21 08:36:58,15.08850139,0.0001621,53.2183,27.5485,77.806,282.3114,0.00015894,2.243e-05,0.0,0 STARLINK-5194,1 54186U 22141AF  23355.35900751  .00002243  00000-0  15894-3 0  9993,2 54186  53.2183  27.5485 0001621  77.8060 282.3114 15.08850139 64042,6917.849,95.437,540.836,538.593,0.0
54186.0,STARLINK-5194,PAYLOAD,2023-12-22 08:27:46,15.08838932,0.0001627,53.2188,23.086,71.4388,288.6781,4.291e-05,3.95e-06,0.0,0 STARLINK-5194,1 54186U 22141AF  23356.35261966  .00000395  00000-0  42910-4 0  9998,2 54186  53.2188  23.0860 0001627  71.4388 288.6781 15.08838932 64196,6917.884,95.438,540.874,538.623,0.0
54186.0,STARLINK-5194,PAYLOAD,2023-12-23 11:29:20,15.08810484,0.000182,53.2193,18.0241,100.9451,259.1746,0.0003622,5.476e-05,0.0,0 STARLINK-5194,1 54186U 22141AF  23357.47870544  .00005476  00000-0  36220-3 0  9991,2 54186  53.2193  18.0241 0001820 100.9451 259.1746 15.08810484 64368,6917.971,95.439,541.095,538.577,0.0
54186.0,STARLINK-5194,PAYLOAD,2023-12-24 08:09:20,15.08839386,0.0001559,53.219,14.1589,91.7304,268.3867,0.00010017,1.307e-05,0.0,0 STARLINK-5194,1 54186U 22141AF  23358.33981726  .00001307  00000-0  10017-3 0  9997,2 54186  53.2190  14.1589 0001559  91.7304 268.3867 15.08839386 64492,6917.882,95.438,540.826,538.669,0.0
54186.0,STARLINK-5194,PAYLOAD,2023-12-25 08:00:07,15.08840685,0.0001379,53.2182,9.7008,103.15,256.9646,3.838e-05,3.23e-06,0.0,0 STARLINK-5194,1 54186U 22141AF  23359.33341964  .00000323  00000-0  38380-4 0  9993,2 54186  53.2182   9.7008 0001379 103.1500 256.9646 15.08840685 64419,6917.878,95.438,540.697,538.789,0.0
54186.0,STARLINK-5194,PAYLOAD,2023-12-26 01:29:22,15.08833947,0.0001614,53.2189,6.4361,120.0503,240.065,-2.3814e-05,-6.67e-06,0.0,0 STARLINK-5194,1 54186U 22141AF  23360.06206778 -.00000667  00000-0 -23814-4 0  9997,2 54186  53.2189   6.4361 0001614 120.0503 240.0650 15.08833947 64754,6917.899,95.438,540.88,538.647,0.0
54186.0,STARLINK-5194,PAYLOAD,2023-12-26 06:15:31,15.08839798,0.0001458,53.219,5.5403,111.5733,248.5414,-2.658e-05,-7.11e-06,0.0,0 STARLINK-5194,1 54186U 22141AF  23360.26078496 -.00000711  00000-0 -26580-4 0  9996,2 54186  53.2190   5.5403 0001458 111.5733 248.5414 15.08839798 64558,6917.881,95.438,540.755,538.737,0.0
54186.0,STARLINK-5194,PAYLOAD,2023-12-27 09:17:04,15.0884424,0.0001339,53.2183,0.4828,110.5373,249.5763,0.0001022,1.339e-05,0.0,0 STARLINK-5194,1 54186U 22141AF  23361.38685918  .00001339  00000-0  10220-3 0  9991,2 54186  53.2183   0.4828 0001339 110.5373 249.5763 15.08844240 64952,6917.867,95.437,540.659,538.806,0.0
54186.0,STARLINK-5194,PAYLOAD,2023-12-28 04:21:43,15.08823232,0.00014,53.2201,356.9111,99.9858,260.1293,0.00023336,3.426e-05,0.0,0 STARLINK-5194,1 54186U 22141AF  23362.18174970  .00003426  00000-0  23336-3 0  9992,2 54186  53.2201 356.9111 0001400  99.9858 260.1293 15.08823232 65073,6917.932,95.439,540.765,538.828,0.0
54186.0,STARLINK-5194,PAYLOAD,2023-12-28 09:07:51,15.0884164,0.0001411,53.2195,356.0205,89.4787,270.6367,0.00011932,1.612e-05,0.0,0 STARLINK-5194,1 54186U 22141AF  23362.38046171  .00001612  00000-0  11932-3 0  9999,2 54186  53.2195 356.0205 0001411  89.4787 270.6367 15.08841640 65102,6917.875,95.437,540.716,538.764,0.0
54186.0,STARLINK-5194,PAYLOAD,2023-12-29 04:12:30,15.08839935,0.0001637,53.2207,352.4478,84.225,275.8929,-3.3855e-05,-8.27e-06,0.0,0 STARLINK-5194,1 54186U 22141AF  23363.17534885 -.00000827  00000-0 -33855-4 0  9999,2 54186  53.2207 352.4478 0001637  84.2250 275.8929 15.08839935 65224,6917.881,95.438,540.878,538.613,0.0
54186.0,STARLINK-5194,PAYLOAD,2023-12-29 08:58:39,15.08843215,0.0001598,53.2199,351.5575,90.1872,269.9303,5.1234e-06,-2.06e-06,0.0,0 STARLINK-5194,1 54186U 22141AF  23363.37406463 -.00000206  00000-0  51234-5 0  9993,2 54186  53.2199 351.5575 0001598  90.1872 269.9303 15.08843215 65028,6917.871,95.437,540.841,538.63,0.0
54186.0,STARLINK-5194,PAYLOAD,2023-12-30 05:38:39,15.08845278,0.0001551,53.2188,347.6898,103.0895,257.027,1.7839e-06,-2.6e-06,0.0,0 STARLINK-5194,1 54186U 22141AF  23364.23518341 -.00000260  00000-0  17839-5 0  9991,2 54186  53.2188 347.6898 0001551 103.0895 257.0270 15.08845278 65389,6917.864,95.437,540.802,538.656,0.0
54186.0,STARLINK-5194,PAYLOAD,2023-12-30 23:07:54,15.08814798,0.0001648,53.2189,344.4201,105.1035,255.0139,0.00024796,3.658e-05,0.0,0 STARLINK-5194,1 54186U 22141AF  23364.96383017  .00003658  00000-0  24796-3 0  9992,2 54186  53.2189 344.4201 0001648 105.1035 255.0139 15.08814798 65261,6917.957,95.439,540.963,538.682,0.0
